RAVAN                   
1 41849U 16067B   23172.00128130  .00006986  00000+0  48401-3 0  9994
2 41849  98.0368 326.5995 0016516 171.8039 188.3459 15.05874743361348
CELTEE 1                
1 41850U 16067C   23171.88030547  .00004512  00000+0  35214-3 0  9996
2 41850  98.0671 320.1492 0000993 182.2976 177.8243 15.01683331360976
OPTICUBE 04             
1 41851U 16067D   23171.93650411  .00002769  00000+0  22883-3 0  9991
2 41851  98.0436 318.3844 0012349 185.1488 174.9609 14.99780146360897
AEROCUBE 8D             
1 41852U 16067E   23171.84975033  .00004306  00000+0  33316-3 0  9994
2 41852  98.0669 319.2266 0004351 229.8641 130.2202 15.02037488360911
AEROCUBE 8C             
1 41853U 16067F   23171.97583260  .00004905  00000+0  37970-3 0  9991
2 41853  98.0452 318.8886 0008920 169.1562 190.9855 15.01920308360928
PROMETHEUS 2-1          
1 41854U 16067G   23171.95096781  .00009854  00000+0  68435-3 0  9995
2 41854  98.0698 321.8896 0016761 199.6728 160.3853 15.05661664361055
PROMETHEUS 2-3          
1 41855U 16067H   23172.40939100  .00009747  00000+0  67768-3 0  9997
2 41855  98.0618 322.2245 0013983 206.2863 153.7654 15.05657834361126
INS-1B                  
1 41954U 17008G   23172.13256043  .00082881  00000+0  10960-2 0  9992
2 41954  97.1981 232.8149 0001568 348.8338  11.2883 15.58057818353491
DIDO-2                  
1 42000U 17008BE  23172.07006491  .00018999  00000+0  47685-3 0  9992
2 42000  97.1999 228.0840 0006073  37.5288 322.6382 15.40033321352531
PEASSS                  
1 42015U 17008BV  23171.69923900  .00050793  00000+0  82641-3 0  9997
2 42015  97.2061 235.1843 0002432  24.9797 335.1574 15.52514221353405
AL-FARABI 1             
1 42016U 17008BW  23172.42851113  .00278114  00000+0  14165-2 0  9990
2 42016  97.2085 243.7526 0003898 232.4648 127.6266 15.80662239354095
NAYIF-1 (EO-88)         
1 42017U 17008BX  23172.12982573  .00333558  00000+0  14817-2 0  9991
2 42017  97.2064 243.6811 0004649 236.7181 123.3644 15.83485091354098
UCLSAT                  
1 42765U 17036A   23172.06597040  .00059512  00000+0  98567-3 0  9996
2 42765  97.1402 210.9826 0006848  91.0879 269.1158 15.51955263333897
AALTO-1                 
1 42775U 17036L   23171.65468079  .00018968  00000+0  54775-3 0  9993
2 42775  97.1509 201.5978 0011850  95.3480 264.9117 15.35638061333056
URSA MAIOR              
1 42776U 17036M   23171.32279293  .00022988  00000+0  62315-3 0  9992
2 42776  97.1514 202.6224 0011403  94.0026 266.2523 15.37577646333076
COMPASS 2               
1 42777U 17036N   23172.06995093  .01953378  34851-2  19783-2 0  9999
2 42777  97.1192 219.0419 0009296 231.6418 128.4033 16.11769785334164
DIAMOND RED             
1 42783U 17036U   23172.07491491  .00028968  00000+0  70753-3 0  9998
2 42783  97.1494 206.6825 0009637  95.0477 265.1871 15.40749030333390
PEGASUS                 
1 42784U 17036V   23172.09376788  .00048435  00000+0  93538-3 0  9999
2 42784  97.1455 209.4608 0008380  90.1885 270.0326 15.47615551333589
DIAMOND GREEN           
1 42785U 17036W   23171.55405339  .00029149  00000+0  68885-3 0  9993
2 42785  97.1491 206.3816 0009446  98.0079 262.2241 15.41747986333393
DIAMOND BLUE            
1 42786U 17036X   23172.09933928  .00029750  00000+0  71209-3 0  9996
2 42786  97.1490 206.8544 0009646  95.3042 264.9307 15.41356113333398
SUCHAI                  
1 42788U 17036Z   23171.76595520  .00085921  00000+0  11334-2 0  9997
2 42788  97.1424 212.9637 0006479  95.2307 264.9689 15.58091464333859
SKCUBE                  
1 42789U 17036AA  23171.65969966  .00057867  00000+0  94420-3 0  9991
2 42789  97.1422 211.2373 0007666  89.3738 270.8393 15.52374253333658
ROBUSTA 1B              
1 42792U 17036AD  23172.06452142  .00074609  00000+0  10634-2 0  9991
2 42792  97.1405 212.9086 0005903  91.6712 268.5219 15.56048853333819
CICERO 6                
1 42793U 17036AE  23171.39880628  .00023278  00000+0  60266-3 0  9994
2 42793  97.1482 206.1476 0008943  97.7350 262.4912 15.39019599333397
CORVUS BC2              
1 42846U 17042X   23172.07768991  .00002305  00000+0  21699-3 0  9999
2 42846  97.3857  13.0329 0008578 190.6099 169.4942 14.94740030323303
CORVUS BC1              
1 42847U 17042Y   23171.80094132  .00002058  00000+0  19381-3 0  9999
2 42847  97.3861  13.1287 0008257 189.1969 170.9102 14.94832028323276
MIRATA                  
1 43015U 17073C   23171.90481977  .00018722  00000+0  11624-2 0  9995
2 43015  97.6336  59.5588 0212369  42.9059 318.8510 14.92841598302047
MAKERSAT 0              
1 43016U 17073D   23172.41871596  .00012375  00000+0  82455-3 0  9992
2 43016  97.6318  58.1452 0227136  50.5439 311.5634 14.88463710301933
CORVUS BC3              
1 43118U 18004H   23171.72327770  .00021627  00000+0  56710-3 0  9998
2 43118  97.3244 246.0542 0008560 129.6067 230.5935 15.38648768302582
CICERO 7                
1 43143U 18004AJ  23172.02470597  .00056976  00000+0  82911-3 0  9993
2 43143  97.3399 258.7698 0004162 122.2072 237.9586 15.55563764303352
GOMX-4B                 
1 43196U 18015E   23171.85617343  .00017777  00000+0  49884-3 0  9993
2 43196  97.5795 322.8488 0014497 188.4410 171.6592 15.36524768299517
GOMX-4A                 
1 43197U 18015F   23172.50315258  .00019381  00000+0  48821-3 0  9990
2 43197  97.5794 325.6352 0013954 181.0868 179.0350 15.39844449299766
AEROCUBE 12B            
1 43557U 18046D   23172.38797667  .00165467  00000+0  10651-2 0  9994
2 43557  51.6236 164.2772 0006666   2.4460 357.6571 15.75122097276376
CUBEBEL-1 (BSUSAT-1)    
1 43666U 18083E   23172.49716684  .00032764  00000+0  86475-3 0  9999
2 43666  97.3789 204.1227 0011418 108.3779 251.8708 15.38335546257860
CICERO 10               
1 43690U 18088A   23171.74909031  .00019363  00000+0  54043-3 0  9994
2 43690  85.0315  70.1491 0009048 204.6743 155.4075 15.36565226256040
PROXIMA I               
1 43694U 18088E   23171.70293180  .00023222  00000+0  59145-3 0  9992
2 43694  85.0248  65.8186 0012963 169.8000 190.3517 15.39341932256328
PROXIMA II              
1 43696U 18088G   23172.43211209  .00023340  00000+0  59628-3 0  9994
2 43696  85.0243  65.3722 0013183 167.4934 192.6647 15.39244470256420
SIRION PATHFINDER-2     
1 43759U 18099B   23172.12828334  .00004383  00000+0  36751-3 0  9993
2 43759  97.5735 233.7014 0015618 101.2758 259.0221 14.98790360248216
CORVUS BC4              
1 43767U 18099K   23172.42788899  .00003949  00000+0  33682-3 0  9993
2 43767  97.5652 231.9408 0012012 109.0638 251.1887 14.98224376248162
MOVE-II                 
1 43780U 18099Y   23171.69711322  .00009521  00000+0  69547-3 0  9994
2 43780  97.5714 235.6492 0010782 134.6309 225.5797 15.03816750248267
SPACEBEE-7              
1 43816U 18099BL  23171.81296322  .00007817  00000+0  59052-3 0  9992
2 43816  97.5942 236.5846 0013018  86.3160 273.9553 15.02584103247850
SPACEBEE-5              
1 43817U 18099BM  23172.44810425  .00036313  00000+0  17976-2 0  9990
2 43817  97.5913 244.5188 0004635  94.8220 265.3543 15.17684902248346
SPACEBEE-6              
1 43818U 18099BN  23172.42217227  .00013042  00000+0  89255-3 0  9994
2 43818  97.5882 239.2376 0013528 101.4951 258.7796 15.06152445248200
SHIELDS 1               
1 43850U 18104B   23172.01230736  .00008052  00000+0  28752-3 0  9992
2 43850  85.0261 166.9203 0012271 355.6922   4.4216 15.28603779250693
STF-1                   
1 43852U 18104D   23171.78025590  .00036102  00000+0  81049-3 0  9992
2 43852  85.0236 164.7775 0008562   5.5709 354.5637 15.43177130250958
ZACUBE-2                
1 43907U 18111AH  23172.48900612  .00025794  00000+0  62860-3 0  9991
2 43907  97.1373  51.9947 0014524 188.8904 171.2088 15.40776544249818
LUME 1                  
1 43908U 18111AJ  23172.48009844  .00033367  00000+0  66323-3 0  9992
2 43908  97.1387  55.6774 0013022 172.8601 187.2837 15.46802174250054
MOVE-IIB                
1 44398U 19038N   23172.51400267  .00050061  00000+0  12066-2 0  9997
2 44398  97.6591 155.5331 0010084 268.1156  91.8934 15.41031444219331
SONATE                  
1 44400U 19038Q   23171.84891750  .00009711  00000+0  43416-3 0  9997
2 44400  97.6838 149.5695 0018667 302.0794  57.8628 15.21382339218797
LUCKY-7                 
1 44406U 19038W   23172.44993238  .00014052  00000+0  57640-3 0  9992
2 44406  97.6802 151.4768 0016654 293.8517  66.0974 15.24237449218971
BEESAT 9                
1 44412U 19038AC  23172.46186633  .00022802  00000+0  78002-3 0  9991
2 44412  97.6745 153.2405 0012708 291.9639  68.0250 15.30189893218810
JAISAT-1                
1 44419U 19038F   23171.88770803  .00024373  00000+0  82642-3 0  9991
2 44419  97.6736 153.7321 0011903 290.3749  69.6212 15.30472247219106
DUCHIFAT-3              
1 44854U 19089C   23172.05160332  .00008949  00000+0  60115-3 0  9992
2 44854  36.9630  68.1914 0009554 338.1324  21.9011 15.06310989193414
EYESAT-NANO             
1 44877U 19092E   23172.02465741  .00055926  00000+0  12754-2 0  9992
2 44877  97.4569   2.5421 0008361 129.4496 230.7493 15.42686125194696
M2 PATHFINDER           
1 45727U 20037E   23172.01367711  .00002848  00000+0  27182-3 0  9992
2 45727  97.7571 346.6896 0010942 249.1218 110.8831 14.94064995161818
NETSAT-4                
1 46504U 20068U   23171.82847088  .00005665  00000+0  37533-3 0  9999
2 46504  97.7635 117.6744 0012112 148.4657 211.7298 15.07652763149455
NETSAT-3                
1 46505U 20068V   23171.79576346  .00006430  00000+0  42748-3 0  9997
2 46505  97.7617 117.4625 0010770 156.9455 203.2257 15.07482248149450
NETSAT-1                
1 46506U 20068W   23171.83955926  .00004876  00000+0  32805-3 0  9993
2 46506  97.7630 117.3847 0009012 162.5994 197.5543 15.07178685149459
NETSAT-2                
1 46507U 20068X   23171.82660134  .00005626  00000+0  37377-3 0  9990
2 46507  97.7620 117.4159 0008154 167.9850 192.1573 15.07586846149403
